0 DELTA 1 DEB
1 12171U 78026L   13282.51573646  .00000131  00000-0  11076-3 0  7258
2 12171 098.7231 268.2341 0037504 020.2660 131.7524 14.02903557672795
0 DELTA 1 DEB
1 12171U 78026L   13286.99243686  .00000307  00000-0  22392-3 0  7272
2 12171 098.7235 272.5244 0037243 007.5902 061.2724 14.02904137673421
0 DELTA 1 DEB
1 12171U 78026L   13289.43399449  .00000377  00000-0  26899-3 0  7287
2 12171 098.7242 274.8640 0037120 000.6384 152.3760 14.02905707673769
0 DELTA 1 DEB
1 12171U 78026L   13291.49375233  .00000406  00000-0  28703-3 0  7291
2 12171 098.7249 276.8378 0037027 354.8118 115.1686 14.02906949674057
0 DELTA 1 DEB
1 12171U 78026L   13293.85221310  .00000428  00000-0  30130-3 0  7302
2 12171 098.7255 279.0982 0036933 348.1941 146.5173 14.02908914674384
0 DELTA 1 DEB
1 12171U 78026L   13296.04470584  .00000399  00000-0  28310-3 0  7310
2 12171 098.7258 281.1999 0036858 342.0385 059.6656 14.02911361674694
